[{"OBJECT_NAME":"OCO 2","OBJECT_ID":"2014-035A","EPOCH":"2026-03-07T14:13:50.995776","MEAN_MOTION":14.57091459,"ECCENTRICITY":0.000121,"INCLINATION":98.2093,"RA_OF_ASC_NODE":9.4702,"ARG_OF_PERICENTER":93.2063,"MEAN_ANOMALY":266.9274,"EPHEMERIS_TYPE":0,"CLASSIFICATION_TYPE":"U","NORAD_CAT_ID":40059,"ELEMENT_SET_NO":999,"REV_AT_EPOCH":62125,"BSTAR":0.00017925192,"MEAN_MOTION_DOT":7.62e-6,"MEAN_MOTION_DDOT":0},{"OBJECT_NAME":"BRITE-PL2 (HEWELIUSZ)","OBJECT_ID":"2014-049B","EPOCH":"2026-03-07T12:43:24.101184","MEAN_MOTION":14.94171658,"ECCENTRICITY":0.00156081,"INCLINATION":97.8983,"RA_OF_ASC_NODE":177.8476,"ARG_OF_PERICENTER":87.8678,"MEAN_ANOMALY":272.4329,"EPHEMERIS_TYPE":0,"CLASSIFICATION_TYPE":"U","NORAD_CAT_ID":40119,"ELEMENT_SET_NO":999,"REV_AT_EPOCH":62626,"BSTAR":0.00036912175,"MEAN_MOTION_DOT":3.902e-5,"MEAN_MOTION_DDOT":0},{"OBJECT_NAME":"MMS 1","OBJECT_ID":"2015-011A","EPOCH":"2026-03-07T16:00:01.999584","MEAN_MOTION":0.28288532,"ECCENTRICITY":0.84135168,"INCLINATION":70.8039,"RA_OF_ASC_NODE":350.1874,"ARG_OF_PERICENTER":165.3182,"MEAN_ANOMALY":23.3942,"EPHEMERIS_TYPE":0,"CLASSIFICATION_TYPE":"U","NORAD_CAT_ID":40482,"ELEMENT_SET_NO":999,"REV_AT_EPOCH":134,"BSTAR":0,"MEAN_MOTION_DOT":-1.96e-5,"MEAN_MOTION_DDOT":0},{"OBJECT_NAME":"MMS 2","OBJECT_ID":"2015-011B","EPOCH":"2026-03-07T16:00:01.999584","MEAN_MOTION":0.28284467,"ECCENTRICITY":0.84144421,"INCLINATION":70.8045,"RA_OF_ASC_NODE":350.1889,"ARG_OF_PERICENTER":165.326,"MEAN_ANOMALY":23.3722,"EPHEMERIS_TYPE":0,"CLASSIFICATION_TYPE":"U","NORAD_CAT_ID":40483,"ELEMENT_SET_NO":999,"REV_AT_EPOCH":134,"BSTAR":0,"MEAN_MOTION_DOT":-1.961e-5,"MEAN_MOTION_DDOT":0},{"OBJECT_NAME":"MMS 3","OBJECT_ID":"2015-011C","EPOCH":"2026-03-07T16:00:01.999584","MEAN_MOTION":0.28288468,"ECCENTRICITY":0.84135318,"INCLINATION":70.8065,"RA_OF_ASC_NODE":350.1942,"ARG_OF_PERICENTER":165.3184,"MEAN_ANOMALY":23.3861,"EPHEMERIS_TYPE":0,"CLASSIFICATION_TYPE":"U","NORAD_CAT_ID":40484,"ELEMENT_SET_NO":999,"REV_AT_EPOCH":134,"BSTAR":0,"MEAN_MOTION_DOT":-1.96e-5,"MEAN_MOTION_DDOT":0},{"OBJECT_NAME":"MMS 4","OBJECT_ID":"2015-011D","EPOCH":"2026-03-07T16:00:01.999584","MEAN_MOTION":0.2828438,"ECCENTRICITY":0.84132295,"INCLINATION":70.8049,"RA_OF_ASC_NODE":350.1888,"ARG_OF_PERICENTER":165.3275,"MEAN_ANOMALY":23.3661,"EPHEMERIS_TYPE":0,"CLASSIFICATION_TYPE":"U","NORAD_CAT_ID":40485,"ELEMENT_SET_NO":999,"REV_AT_EPOCH":134,"BSTAR":0,"MEAN_MOTION_DOT":-1.96e-5,"MEAN_MOTION_DDOT":0},{"OBJECT_NAME":"ASTROSAT","OBJECT_ID":"2015-052A","EPOCH":"2026-03-07T13:39:34.142688","MEAN_MOTION":14.82292643,"ECCENTRICITY":0.00078613,"INCLINATION":5.9962,"RA_OF_ASC_NODE":166.6935,"ARG_OF_PERICENTER":19.7564,"MEAN_ANOMALY":340.2868,"EPHEMERIS_TYPE":0,"CLASSIFICATION_TYPE":"U","NORAD_CAT_ID":40930,"ELEMENT_SET_NO":999,"REV_AT_EPOCH":56472,"BSTAR":0.0002350212,"MEAN_MOTION_DOT":2.594e-5,"MEAN_MOTION_DDOT":0},{"OBJECT_NAME":"DAMPE","OBJECT_ID":"2015-078A","EPOCH":"2026-03-07T13:51:32.595840","MEAN_MOTION":15.30488276,"ECCENTRICITY":0.00138894,"INCLINATION":97.4582,"RA_OF_ASC_NODE":71.5559,"ARG_OF_PERICENTER":78.1385,"MEAN_ANOMALY":282.1412,"EPHEMERIS_TYPE":0,"CLASSIFICATION_TYPE":"U","NORAD_CAT_ID":41173,"ELEMENT_SET_NO":999,"REV_AT_EPOCH":56900,"BSTAR":4.137268e-5,"MEAN_MOTION_DOT":1.145e-5,"MEAN_MOTION_DDOT":0},{"OBJECT_NAME":"PISAT","OBJECT_ID":"2016-059B","EPOCH":"2026-03-07T13:51:01.167840","MEAN_MOTION":14.68767973,"ECCENTRICITY":0.00293718,"INCLINATION":97.8192,"RA_OF_ASC_NODE":71.4105,"ARG_OF_PERICENTER":167.3892,"MEAN_ANOMALY":192.8056,"EPHEMERIS_TYPE":0,"CLASSIFICATION_TYPE":"U","NORAD_CAT_ID":41784,"ELEMENT_SET_NO":999,"REV_AT_EPOCH":50482,"BSTAR":0.00027679311,"MEAN_MOTION_DOT":1.577e-5,"MEAN_MOTION_DDOT":0},{"OBJECT_NAME":"HXMT (HUIYAN)","OBJECT_ID":"2017-034A","EPOCH":"2026-03-07T08:12:43.879392","MEAN_MOTION":15.17423402,"ECCENTRICITY":0.00326828,"INCLINATION":43.0153,"RA_OF_ASC_NODE":29.7234,"ARG_OF_PERICENTER":221.6481,"MEAN_ANOMALY":138.1877,"EPHEMERIS_TYPE":0,"CLASSIFICATION_TYPE":"U","NORAD_CAT_ID":42758,"ELEMENT_SET_NO":999,"REV_AT_EPOCH":48218,"BSTAR":0.00041233991,"MEAN_MOTION_DOT":8.28e-5,"MEAN_MOTION_DDOT":0},{"OBJECT_NAME":"FLYING LAPTOP","OBJECT_ID":"2017-042G","EPOCH":"2026-03-07T15:27:29.904768","MEAN_MOTION":15.00499223,"ECCENTRICITY":0.00189631,"INCLINATION":97.4268,"RA_OF_ASC_NODE":226.4089,"ARG_OF_PERICENTER":102.0972,"MEAN_ANOMALY":258.2379,"EPHEMERIS_TYPE":0,"CLASSIFICATION_TYPE":"U","NORAD_CAT_ID":42831,"ELEMENT_SET_NO":999,"REV_AT_EPOCH":47122,"BSTAR":0.0002444663,"MEAN_MOTION_DOT":3.034e-5,"MEAN_MOTION_DDOT":0},{"OBJECT_NAME":"ZHANGHENG 1-01 (CSES-1)","OBJECT_ID":"2018-015C","EPOCH":"2026-03-07T14:46:45.322176","MEAN_MOTION":15.20976814,"ECCENTRICITY":0.00148709,"INCLINATION":97.6753,"RA_OF_ASC_NODE":230.3088,"ARG_OF_PERICENTER":252.3514,"MEAN_ANOMALY":107.6097,"EPHEMERIS_TYPE":0,"CLASSIFICATION_TYPE":"U","NORAD_CAT_ID":43194,"ELEMENT_SET_NO":999,"REV_AT_EPOCH":44920,"BSTAR":0.00065948017,"MEAN_MOTION_DOT":0.000146,"MEAN_MOTION_DDOT":0},{"OBJECT_NAME":"SALSAT","OBJECT_ID":"2020-068K","EPOCH":"2026-03-07T12:17:36.532896","MEAN_MOTION":15.28132776,"ECCENTRICITY":0.00084131,"INCLINATION":97.8857,"RA_OF_ASC_NODE":63.5159,"ARG_OF_PERICENTER":306.1351,"MEAN_ANOMALY":53.9108,"EPHEMERIS_TYPE":0,"CLASSIFICATION_TYPE":"U","NORAD_CAT_ID":46495,"ELEMENT_SET_NO":999,"REV_AT_EPOCH":29982,"BSTAR":0.0005012467,"MEAN_MOTION_DOT":0.0001369,"MEAN_MOTION_DDOT":0},{"OBJECT_NAME":"IXPE","OBJECT_ID":"2021-121A","EPOCH":"2026-03-07T14:00:01.000224","MEAN_MOTION":15.09177712,"ECCENTRICITY":0.00075625,"INCLINATION":0.2319,"RA_OF_ASC_NODE":5.3911,"ARG_OF_PERICENTER":338.852,"MEAN_ANOMALY":252.6974,"EPHEMERIS_TYPE":0,"CLASSIFICATION_TYPE":"U","NORAD_CAT_ID":49954,"ELEMENT_SET_NO":999,"REV_AT_EPOCH":547,"BSTAR":0.00079118871,"MEAN_MOTION_DOT":0.00013889,"MEAN_MOTION_DDOT":0}]
