OCO 2                   
1 40059U 14035A   26066.59295134  .00000762  00000+0  17925-3 0  9990
2 40059  98.2093   9.4702 0001210  93.2063 266.9274 14.57091459621257
BRITE-PL2 (HEWELIUSZ)   
1 40119U 14049B   26066.53014006  .00003902  00000+0  36912-3 0  9999
2 40119  97.8983 177.8476 0015608  87.8678 272.4329 14.94171658626262
MMS 1                   
1 40482U 15011A   26066.66668981 -.00001960  00000+0  00000+0 0  9991
2 40482  70.8039 350.1874 8413516 165.3182  23.3942  0.28288532  1348
MMS 2                   
1 40483U 15011B   26066.66668981 -.00001961  00000+0  00000+0 0  9993
2 40483  70.8045 350.1889 8414442 165.3260  23.3722  0.28284467  1347
MMS 3                   
1 40484U 15011C   26066.66668981 -.00001960  00000+0  00000+0 0  9993
2 40484  70.8065 350.1942 8413531 165.3184  23.3861  0.28288468  1342
MMS 4                   
1 40485U 15011D   26066.66668981 -.00001960  00000+0  00000+0 0  9994
2 40485  70.8049 350.1888 8413229 165.3275  23.3661  0.28284380  1346
ASTROSAT                
1 40930U 15052A   26066.56914517  .00002594  00000+0  23502-3 0  9991
2 40930   5.9962 166.6935 0007861  19.7564 340.2868 14.82292643564725
DAMPE                   
1 41173U 15078A   26066.57746060  .00001145  00000+0  41373-4 0  9994
2 41173  97.4582  71.5559 0013889  78.1385 282.1412 15.30488276569000
PISAT                   
1 41784U 16059B   26066.57709685  .00001577  00000+0  27679-3 0  9995
2 41784  97.8192  71.4105 0029371 167.3892 192.8056 14.68767973504826
HXMT (HUIYAN)           
1 42758U 17034A   26066.34217453  .00008280  00000+0  41234-3 0  9994
2 42758  43.0153  29.7234 0032682 221.6481 138.1877 15.17423402482183
FLYING LAPTOP           
1 42831U 17042G   26066.64409612  .00003034  00000+0  24447-3 0  9997
2 42831  97.4268 226.4089 0018963 102.0972 258.2379 15.00499223471222
ZHANGHENG 1-01 (CSES-1) 
1 43194U 18015C   26066.61580234  .00014600  00000+0  65948-3 0  9990
2 43194  97.6753 230.3088 0014870 252.3514 107.6097 15.20976814449208
SALSAT                  
1 46495U 20068K   26066.51222839  .00013690  00000+0  50125-3 0  9990
2 46495  97.8857  63.5159 0008413 306.1351  53.9108 15.28132776299826
IXPE                    
1 49954U 21121A   26066.58334491  .00013889  00000+0  79119-3 0  9993
2 49954   0.2319   5.3911 0007562 338.8520 252.6974 15.09177712  5477
